[
    {
        "Altitude(m)": 558893.8147358292,
        "Argument of Periapsis(deg)": 0.006622991110713501,
        "Eccentricity": 0.0,
        "Inclination(deg)": 53.0,
        "Latitude(deg)": 48.736774363914776,
        "Longitude(deg)": -69.44078384661891,
        "Mean Anomaly(deg)": -249.90840713242244,
        "RAAN(deg)": 269.990143368528,
        "Satellite Name": "Starlink Shell 1 1194",
        "Satellite Number": 1194,
        "Semi-Major Axis(m)": 6931778.249405717,
        "Time(s)": 190
    },
    {
        "Altitude(m)": 558833.4941714534,
        "Argument of Periapsis(deg)": 0.0069715695902247375,
        "Eccentricity": 0.0,
        "Inclination(deg)": 53.0,
        "Latitude(deg)": 48.47298030998711,
        "Longitude(deg)": -68.6241223086323,
        "Mean Anomaly(deg)": -249.28157592886566,
        "RAAN(deg)": 269.9896245984506,
        "Satellite Name": "Starlink Shell 1 1194",
        "Satellite Number": 1194,
        "Semi-Major Axis(m)": 6931778.249405717,
        "Time(s)": 200
    },
    {
        "Altitude(m)": 558771.7522671587,
        "Argument of Periapsis(deg)": 0.007320148069735974,
        "Eccentricity": 0.0,
        "Inclination(deg)": 53.0,
        "Latitude(deg)": 48.20284715486037,
        "Longitude(deg)": -67.81640719500211,
        "Mean Anomaly(deg)": -248.654744725309,
        "RAAN(deg)": 269.98910582837306,
        "Satellite Name": "Starlink Shell 1 1194",
        "Satellite Number": 1194,
        "Semi-Major Axis(m)": 6931778.249405717,
        "Time(s)": 210
    },
    {
        "Altitude(m)": 558708.6269273165,
        "Argument of Periapsis(deg)": 0.007668726549247212,
        "Eccentricity": 0.0,
        "Inclination(deg)": 53.0,
        "Latitude(deg)": 47.9264993591825,
        "Longitude(deg)": -67.01766694144094,
        "Mean Anomaly(deg)": -248.0279135217523,
        "RAAN(deg)": 269.9885870582956,
        "Satellite Name": "Starlink Shell 1 1194",
        "Satellite Number": 1194,
        "Semi-Major Axis(m)": 6931778.249405717,
        "Time(s)": 220
    },
    {
        "Altitude(m)": 558644.1569608271,
        "Argument of Periapsis(deg)": 0.00801730502875845,
        "Eccentricity": 0.0,
        "Inclination(deg)": 53.0,
        "Latitude(deg)": 47.6440610079993,
        "Longitude(deg)": -66.22791818975199,
        "Mean Anomaly(deg)": -247.40108231819553,
        "RAAN(deg)": 269.9880682882182,
        "Satellite Name": "Starlink Shell 1 1194",
        "Satellite Number": 1194,
        "Semi-Major Axis(m)": 6931778.249405717,
        "Time(s)": 230
    },
    {
        "Altitude(m)": 558578.3820619151,
        "Argument of Periapsis(deg)": 0.008365883508269684,
        "Eccentricity": 0.0,
        "Inclination(deg)": 53.0,
        "Latitude(deg)": 47.35565564652089,
        "Longitude(deg)": -65.44716583508477,
        "Mean Anomaly(deg)": -246.77425111463884,
        "RAAN(deg)": 269.98754951814067,
        "Satellite Name": "Starlink Shell 1 1194",
        "Satellite Number": 1194,
        "Semi-Major Axis(m)": 6931778.249405717,
        "Time(s)": 240
    },
    {
        "Altitude(m)": 558511.3427905052,
        "Argument of Periapsis(deg)": 0.008714461987780921,
        "Eccentricity": 0.0,
        "Inclination(deg)": 53.0,
        "Latitude(deg)": 47.06140612708745,
        "Longitude(deg)": -64.67540459159359,
        "Mean Anomaly(deg)": -246.14741991108212,
        "RAAN(deg)": 269.98703074806315,
        "Satellite Name": "Starlink Shell 1 1194",
        "Satellite Number": 1194,
        "Semi-Major Axis(m)": 6931778.249405717,
        "Time(s)": 250
    },
    {
        "Altitude(m)": 558443.0805521341,
        "Argument of Periapsis(deg)": 0.009063040467292158,
        "Eccentricity": 0.0,
        "Inclination(deg)": 53.0,
        "Latitude(deg)": 46.76143446721017,
        "Longitude(deg)": -63.91261904729471,
        "Mean Anomaly(deg)": -245.52058870752543,
        "RAAN(deg)": 269.98651197798574,
        "Satellite Name": "Starlink Shell 1 1194",
        "Satellite Number": 1194,
        "Semi-Major Axis(m)": 6931778.249405717,
        "Time(s)": 260
    },
    {
        "Altitude(m)": 558373.6375774192,
        "Argument of Periapsis(deg)": 0.009411618946803396,
        "Eccentricity": 0.0,
        "Inclination(deg)": 53.0,
        "Latitude(deg)": 46.45586171850294,
        "Longitude(deg)": -63.15878371782291,
        "Mean Anomaly(deg)": -244.8937575039687,
        "RAAN(deg)": 269.9859932079082,
        "Satellite Name": "Starlink Shell 1 1194",
        "Satellite Number": 1194,
        "Semi-Major Axis(m)": 6931778.249405717,
        "Time(s)": 270
    },
    {
        "Altitude(m)": 558303.0569011059,
        "Argument of Periapsis(deg)": 0.009760197426314633,
        "Eccentricity": 0.0,
        "Inclination(deg)": 53.0,
        "Latitude(deg)": 46.14480784626747,
        "Longitude(deg)": -62.413864609087604,
        "Mean Anomaly(deg)": -244.26692630041197,
        "RAAN(deg)": 269.98547443783076,
        "Satellite Name": "Starlink Shell 1 1194",
        "Satellite Number": 1194,
        "Semi-Major Axis(m)": 6931778.249405717,
        "Time(s)": 280
    },
    {
        "Altitude(m)": 558231.3823407089,
        "Argument of Periapsis(deg)": 0.01010877590582587,
        "Eccentricity": 0.0,
        "Inclination(deg)": 53.0,
        "Latitude(deg)": 45.82839161945385,
        "Longitude(deg)": -61.67781926051204,
        "Mean Anomaly(deg)": -243.64009509685528,
        "RAAN(deg)": 269.9849556677533,
        "Satellite Name": "Starlink Shell 1 1194",
        "Satellite Number": 1194,
        "Semi-Major Axis(m)": 6931778.249405717,
        "Time(s)": 290
    },
    {
        "Altitude(m)": 558158.6584747161,
        "Argument of Periapsis(deg)": 0.010457354385337106,
        "Eccentricity": 0.0,
        "Inclination(deg)": 53.0,
        "Latitude(deg)": 45.50673051067632,
        "Longitude(deg)": -60.95059677943416,
        "Mean Anomaly(deg)": -243.01326389329853,
        "RAAN(deg)": 269.98443689767583,
        "Satellite Name": "Starlink Shell 1 1194",
        "Satellite Number": 1194,
        "Semi-Major Axis(m)": 6931778.249405717,
        "Time(s)": 300
    },
    {
        "Altitude(m)": 558084.9306204116,
        "Argument of Periapsis(deg)": 0.010805932864848343,
        "Eccentricity": 0.0,
        "Inclination(deg)": 53.0,
        "Latitude(deg)": 45.17994060593507,
        "Longitude(deg)": -60.232139377533734,
        "Mean Anomaly(deg)": -242.38643268974184,
        "RAAN(deg)": 269.9839181275983,
        "Satellite Name": "Starlink Shell 1 1194",
        "Satellite Number": 1194,
        "Semi-Major Axis(m)": 6931778.249405717,
        "Time(s)": 310
    },
    {
        "Altitude(m)": 558010.2448113079,
        "Argument of Periapsis(deg)": 0.01115451134435958,
        "Eccentricity": 0.0,
        "Inclination(deg)": 53.0,
        "Latitude(deg)": 44.848136523668835,
        "Longitude(deg)": -59.52238238179698,
        "Mean Anomaly(deg)": -241.75960148618515,
        "RAAN(deg)": 269.9833993575209,
        "Satellite Name": "Starlink Shell 1 1194",
        "Satellite Number": 1194,
        "Semi-Major Axis(m)": 6931778.249405717,
        "Time(s)": 320
    },
    {
        "Altitude(m)": 557934.6477741876,
        "Argument of Periapsis(deg)": 0.011503089823870818,
        "Eccentricity": 0.0,
        "Inclination(deg)": 53.0,
        "Latitude(deg)": 44.51143134274414,
        "Longitude(deg)": -58.82125423140608,
        "Mean Anomaly(deg)": -241.13277028262846,
        "RAAN(deg)": 269.9828805874434,
        "Satellite Name": "Starlink Shell 1 1194",
        "Satellite Number": 1194,
        "Semi-Major Axis(m)": 6931778.249405717,
        "Time(s)": 330
    },
    {
        "Altitude(m)": 557858.1869057846,
        "Argument of Periapsis(deg)": 0.011851668303382053,
        "Eccentricity": 0.0,
        "Inclination(deg)": 53.0,
        "Latitude(deg)": 44.169936538968514,
        "Longitude(deg)": -58.12867797216951,
        "Mean Anomaly(deg)": -240.50593907907165,
        "RAAN(deg)": 269.9823618173659,
        "Satellite Name": "Starlink Shell 1 1194",
        "Satellite Number": 1194,
        "Semi-Major Axis(m)": 6931778.249405717,
        "Time(s)": 340
    },
    {
        "Altitude(m)": 557780.9102490902,
        "Argument of Periapsis(deg)": 0.012200246782893292,
        "Eccentricity": 0.0,
        "Inclination(deg)": 53.0,
        "Latitude(deg)": 43.823761929710955,
        "Longitude(deg)": -57.444571221733185,
        "Mean Anomaly(deg)": -239.87910787551496,
        "RAAN(deg)": 269.98184304728846,
        "Satellite Name": "Starlink Shell 1 1194",
        "Satellite Number": 1194,
        "Semi-Major Axis(m)": 6931778.249405717,
        "Time(s)": 350
    },
    {
        "Altitude(m)": 557702.8664693433,
        "Argument of Periapsis(deg)": 0.012548825262404526,
        "Eccentricity": 0.0,
        "Inclination(deg)": 53.0,
        "Latitude(deg)": 43.473015626201594,
        "Longitude(deg)": -56.76884611762204,
        "Mean Anomaly(deg)": -239.25227667195827,
        "RAAN(deg)": 269.981324277211,
        "Satellite Name": "Starlink Shell 1 1194",
        "Satellite Number": 1194,
        "Semi-Major Axis(m)": 6931778.249405717,
        "Time(s)": 360
    },
    {
        "Altitude(m)": 557624.104829634,
        "Argument of Periapsis(deg)": 0.012897403741915765,
        "Eccentricity": 0.0,
        "Inclination(deg)": 53.0,
        "Latitude(deg)": 43.11780399308219,
        "Longitude(deg)": -56.1014107603617,
        "Mean Anomaly(deg)": -238.6254454684016,
        "RAAN(deg)": 269.9808055071335,
        "Satellite Name": "Starlink Shell 1 1194",
        "Satellite Number": 1194,
        "Semi-Major Axis(m)": 6931778.249405717,
        "Time(s)": 370
    }
]